#dV2019  9 28  0  0  0.00000000    8640 U+u   IGS14 FIT TUD 
## 2072 518400.00000000    10.00000000 58754 0.0000000000000
+    1   L47  0  0  0  0  0  0  0  0  0  0  0  0  0  0  0  0                          
+          0  0  0  0  0  0  0  0  0  0  0  0  0  0  0  0  0                          
+          0  0  0  0  0  0  0  0  0  0  0  0  0  0  0  0  0                          
+          0  0  0  0  0  0  0  0  0  0  0  0  0  0  0  0  0                          
+          0  0  0  0  0  0  0  0  0  0  0  0  0  0  0  0  0                          
++         0  0  0  0  0  0  0  0  0  0  0  0  0  0  0  0  0                          
++         0  0  0  0  0  0  0  0  0  0  0  0  0  0  0  0  0                          
++         0  0  0  0  0  0  0  0  0  0  0  0  0  0  0  0  0                          
++         0  0  0  0  0  0  0  0  0  0  0  0  0  0  0  0  0                          
++         0  0  0  0  0  0  0  0  0  0  0  0  0  0  0  0  0                          
%c M  cc GPS ccc cccc cccc cccc cccc ccccc ccccc ccccc ccccc                          
%c cc cc ccc ccc cccc cccc cccc cccc ccccc ccccc ccccc ccccc                          
%f  0.0000000  0.000000000  0.00000000000  0.000000000000000                          
%f  0.0000000  0.000000000  0.00000000000  0.000000000000000                          
%i    0    0    0    0      0      0      0      0         0                          
%i    0    0    0    0      0      0      0      0         0                          
/* Created by: RDOD_AR_WGT                                                            
/* Setup     : SWARMA.19.271_RDOD_AR.inp                                              
/* Executed  : 10-May-2021 20:27 UTC, by swarmgen@euclid2.lr.tudelft.nl               
/*                                                                                    
*  2019 09 28 00 44 00.00000000                             
PL47  -946.8493425  -167.0218920 -6753.5566694 999999.999999
VL47-66048.7302804-36385.1484436 10170.4868038 999999.999999
*  2019 09 28 00 44 10.00000000                             
PL47 -1012.8643365  -203.3477553 -6742.9635438 999999.999999
VL47-65979.8602140-36265.8420486 11015.5468817 999999.999999
*  2019 09 28 00 44 20.00000000                             
PL47 -1078.8062684  -239.5521084 -6731.5260280 999999.999999
VL47-65902.6063652-36142.1326518 11859.2497230 999999.999999
*  2019 09 28 00 44 30.00000000                             
PL47 -1144.6667554  -275.6305620 -6719.2455314 999999.999999
VL47-65816.9712012-36014.0475721 12701.4912364 999999.999999
*  2019 09 28 00 44 40.00000000                             
PL47 -1210.4374181  -311.5787543 -6706.1235673 999999.999999
VL47-65722.9582521-35881.6145511 13542.1674591 999999.999999
*  2019 09 28 00 44 50.00000000                             
PL47 -1276.1098809  -347.3923513 -6692.1617529 999999.999999
VL47-65620.5720537-35744.8620127 14381.1745719 999999.999999
*  2019 09 28 00 45 00.00000000                             
PL47 -1341.6757730  -383.0670481 -6677.3618091 999999.999999
VL47-65509.8182299-35603.8187874 15218.4089176 999999.999999
*  2019 09 28 00 45 10.00000000                             
PL47 -1407.1267303  -418.5985684 -6661.7255605 999999.999999
VL47-65390.7035036-35458.5141068 16053.7670207 999999.999999
*  2019 09 28 00 45 20.00000000                             
PL47 -1472.4543956  -453.9826658 -6645.2549349 999999.999999
VL47-65263.2356256-35308.9778831 16887.1456122 999999.999999
*  2019 09 28 00 45 30.00000000                             
PL47 -1537.6504201  -489.2151237 -6627.9519634 999999.999999
VL47-65127.4234426-35155.2404518 17718.4416552 999999.999999
*  2019 09 28 00 45 40.00000000                             
PL47 -1602.7064644  -524.2917565 -6609.8187800 999999.999999
VL47-64983.2768640-34997.3326714 18547.5523742 999999.999999
*  2019 09 28 00 45 50.00000000                             
PL47 -1667.6141994  -559.2084094 -6590.8576213 999999.999999
VL47-64830.8068551-34835.2858868 19374.3752821 999999.999999
*  2019 09 28 00 46 00.00000000                             
PL47 -1732.3653076  -593.9609592 -6571.0708261 999999.999999
VL47-64670.0254032-34669.1319477 20198.8081975 999999.999999
*  2019 09 28 00 46 10.00000000                             
PL47 -1796.9514840  -628.5453150 -6550.4608355 999999.999999
VL47-64500.9455496-34498.9030353 21020.7492467 999999.999999
*  2019 09 28 00 46 20.00000000                             
PL47 -1861.3644372  -662.9574180 -6529.0301921 999999.999999
VL47-64323.5812383-34324.6320337 21840.0968517 999999.999999
*  2019 09 28 00 46 30.00000000                             
PL47 -1925.5958900  -697.1932427 -6506.7815401 999999.999999
VL47-64137.9474557-34146.3521196 22656.7497153 999999.999999
*  2019 09 28 00 46 40.00000000                             
PL47 -1989.6375810  -731.2487970 -6483.7176246 999999.999999
VL47-63944.0602428-33964.0967560 23470.6068108 999999.999999
*  2019 09 28 00 46 50.00000000                             
PL47 -2053.4812650  -765.1201225 -6459.8412920 999999.999999
VL47-63741.9365641-33777.9001005 24281.5673829 999999.999999
*  2019 09 28 00 47 00.00000000                             
PL47 -2117.1187146  -798.8032950 -6435.1554889 999999.999999
VL47-63531.5944542-33587.7966259 25089.5309567 999999.999999
*  2019 09 28 00 47 10.00000000                             
PL47 -2180.5417208  -832.2944251 -6409.6632624 999999.999999
VL47-63313.0529728-33393.8212727 25894.3973526 999999.999999
*  2019 09 28 00 47 20.00000000                             
PL47 -2243.7420941  -865.5896587 -6383.3677598 999999.999999
VL47-63086.3322216-33196.0094101 26696.0667020 999999.999999
*  2019 09 28 00 47 30.00000000                             
PL47 -2306.7116658  -898.6851770 -6356.2722279 999999.999999
VL47-62851.4533277-32994.3968791 27494.4394626 999999.999999
*  2019 09 28 00 47 40.00000000                             
PL47 -2369.4422888  -931.5771976 -6328.3800129 999999.999999
VL47-62608.4385259-32789.0197845 28289.4164305 999999.999999
*  2019 09 28 00 47 50.00000000                             
PL47 -2431.9258386  -964.2619740 -6299.6945599 999999.999999
VL47-62357.3109624-32579.9149947 29080.8987535 999999.999999
*  2019 09 28 00 48 00.00000000                             
PL47 -2494.1542145  -996.7357974 -6270.2194131 999999.999999
VL47-62098.0949066-32367.1196071 29868.7879454 999999.999999
*  2019 09 28 00 48 10.00000000                             
PL47 -2556.1193407 -1028.9949955 -6239.9582145 999999.999999
VL47-61830.8157549-32150.6709377 30652.9859018 999999.999999
*  2019 09 28 00 48 20.00000000                             
PL47 -2617.8131671 -1061.0359341 -6208.9147042 999999.999999
VL47-61555.4998179-31930.6070479 31433.3949141 999999.999999
*  2019 09 28 00 48 30.00000000                             
PL47 -2679.2276706 -1092.8550173 -6177.0927201 999999.999999
VL47-61272.1745141-31706.9662400 32209.9176810 999999.999999
*  2019 09 28 00 48 40.00000000                             
PL47 -2740.3548558 -1124.4486872 -6144.4961966 999999.999999
VL47-60980.8682944-31479.7872444 32982.4573167 999999.999999
*  2019 09 28 00 48 50.00000000                             
PL47 -2801.1867567 -1155.8134254 -6111.1291653 999999.999999
VL47-60681.6106392-31249.1092242 33750.9173606 999999.999999
*  2019 09 28 00 49 00.00000000                             
PL47 -2861.7154368 -1186.9457524 -6076.9957538 999999.999999
VL47-60374.4321638-31014.9715302 34515.2017898 999999.999999
*  2019 09 28 00 49 10.00000000                             
PL47 -2921.9329912 -1217.8422286 -6042.1001854 999999.999999
VL47-60059.3643704-30777.4143018 35275.2150360 999999.999999
*  2019 09 28 00 49 20.00000000                             
PL47 -2981.8315467 -1248.4994546 -6006.4467791 999999.999999
VL47-59736.4399144-30536.4778204 36030.8620062 999999.999999
*  2019 09 28 00 49 30.00000000                             
PL47 -3041.4032634 -1278.9140713 -5970.0399484 999999.999999
VL47-59405.6926024-30292.2024958 36782.0481033 999999.999999
*  2019 09 28 00 49 40.00000000                             
PL47 -3100.6403358 -1309.0827604 -5932.8842012 999999.999999
VL47-59067.1571147-30044.6295000 37528.6792428 999999.999999
*  2019 09 28 00 49 50.00000000                             
PL47 -3159.5349935 -1339.0022448 -5894.9841394 999999.999999
VL47-58720.8692456-29793.8001560 38270.6618644 999999.999999
*  2019 09 28 00 50 00.00000000                             
PL47 -3218.0795024 -1368.6692892 -5856.3444580 999999.999999
VL47-58366.8657941-29539.7561745 39007.9029386 999999.999999
*  2019 09 28 00 50 10.00000000                             
PL47 -3276.2661658 -1398.0806997 -5816.9699449 999999.999999
VL47-58005.1845831-29282.5395926 39740.3099741 999999.999999
*  2019 09 28 00 50 20.00000000                             
PL47 -3334.0873252 -1427.2333249 -5776.8654801 999999.999999
VL47-57635.8644291-29022.1928368 40467.7910263 999999.999999
*  2019 09 28 00 50 30.00000000                             
PL47 -3391.5353617 -1456.1240561 -5736.0360353 999999.999999
VL47-57258.9452659-28758.7584281 41190.2547057 999999.999999
*  2019 09 28 00 50 40.00000000                             
PL47 -3448.6026963 -1484.7498270 -5694.4866734 999999.999999
VL47-56874.4678355-28492.2796953 41907.6101892 999999.999999
*  2019 09 28 00 50 50.00000000                             
PL47 -3505.2817918 -1513.1076152 -5652.2225477 999999.999999
VL47-56482.4740123-28222.8000140 42619.7672331 999999.999999
*  2019 09 28 00 51 00.00000000                             
PL47 -3561.5651532 -1541.1944412 -5609.2489016 999999.999999
VL47-56083.0068033-27950.3627971 43326.6361867 999999.999999
*  2019 09 28 00 51 10.00000000                             
PL47 -3617.4453289 -1569.0073697 -5565.5710678 999999.999999
VL47-55676.1100177-27675.0122491 44028.1280061 999999.999999
EOF                                                         
